COMMENT,ORIGINATOR,NORAD_CAT_ID,OBJECT_NAME,OBJECT_TYPE,CLASSIFICATION_TYPE,INTLDES,EPOCH,EPOCH_MICROSECONDS,MEAN_MOTION,ECCENTRICITY,INCLINATION,RA_OF_ASC_NODE,ARG_OF_PERICENTER,MEAN_ANOMALY,EPHEMERIS_TYPE,ELEMENT_SET_NO,REV_AT_EPOCH,BSTAR,MEAN_MOTION_DOT,MEAN_MOTION_DDOT,FILE,TLE_LINE0,TLE_LINE1,TLE_LINE2,OBJECT_ID,OBJECT_NUMBER,SEMIMAJOR_AXIS,PERIOD,APOGEE,PERIGEE,DECAYED,date
GENERATED VIA SPACETRACK.ORG API,18 SPCS,48886,SPACEBEE-102,PAYLOAD,U,21059H,2023/3/3 8:49,166848,15.23575471,0.0007412,97.5784,197.1939,281.1676,78.8728,0,999,9322,0.0018622,0.00044729,0,3850163,0 SPACEBEE-102,1 48886U 21059H   23062.36795332  .00044729  00000-0  18622-2 0  9999,2 48886  97.5784 197.1939 0007412 281.1676  78.8728 15.23575471 93226,2021-059H,48886,6873.203,94.515,500.163,489.974,0,
GENERATED VIA SPACETRACK.ORG API,18 SPCS,48886,SPACEBEE-102,PAYLOAD,U,21059H,2023/3/3 21:26,520000,15.23616806,0.000742,97.5788,197.725,279.1357,80.904,0,999,9330,0.0016813,0.00040402,0,3850400,0 SPACEBEE-102,1 48886U 21059H   23062.89336250  .00040402  00000-0  16813-2 0  9991,2 48886  97.5788 197.7250 0007420 279.1357  80.9040 15.23616806 93302,2021-059H,48886,6873.079,94.512,500.044,489.844,0,
GENERATED VIA SPACETRACK.ORG API,18 SPCS,48886,SPACEBEE-102,PAYLOAD,U,21059H,2023/3/4 8:28,287392,15.23661704,0.0007407,97.5788,198.1895,277.5082,82.5313,0,999,9337,0.001946,0.00046878,0,3851072,0 SPACEBEE-102,1 48886U 21059H   23063.35308203  .00046878  00000-0  19460-2 0  9994,2 48886  97.5788 198.1895 0007407 277.5082  82.5313 15.23661704 93379,2021-059H,48886,6872.944,94.509,499.9,489.718,0,
GENERATED VIA SPACETRACK.ORG API,18 SPCS,48886,SPACEBEE-102,PAYLOAD,U,21059H,2023/3/5 8:06,532384,15.23746543,0.000746,97.5789,199.1847,274.4262,85.6122,0,999,9352,0.0018447,0.00044532,0,3851825,0 SPACEBEE-102,1 48886U 21059H   23064.33815431  .00044532  00000-0  18447-2 0  9998,2 48886  97.5789 199.1847 0007460 274.4262  85.6122 15.23746543 93527,2021-059H,48886,6872.689,94.504,499.681,489.427,0,
GENERATED VIA SPACETRACK.ORG API,18 SPCS,48886,SPACEBEE-102,PAYLOAD,U,21059H,2023/3/5 8:06,532384,15.23746543,0.000746,97.5789,199.1847,274.4262,85.6122,0,999,9352,0.0018447,0.00044532,0,3851939,0 SPACEBEE-102,1 48886U 21059H   23064.33815431  .00044532  00000-0  18447-2 0  9998,2 48886  97.5789 199.1847 0007460 274.4262  85.6122 15.23746543 93527,2021-059H,48886,6872.689,94.504,499.681,489.427,0,
GENERATED VIA SPACETRACK.ORG API,18 SPCS,48886,SPACEBEE-102,PAYLOAD,U,21059H,2023/3/5 22:18,310464,15.23802252,0.0007475,97.579,199.7819,272.4493,87.5888,0,999,9361,0.0019524,0.00047231,0,3852256,0 SPACEBEE-102,1 48886U 21059H   23064.92917026  .00047231  00000-0  19524-2 0  9992,2 48886  97.5790 199.7819 0007475 272.4493  87.5888 15.23802252 93614,2021-059H,48886,6872.521,94.5,499.524,489.249,0,
GENERATED VIA SPACETRACK.ORG API,18 SPCS,48886,SPACEBEE-102,PAYLOAD,U,21059H,2023/3/6 7:45,657312,15.23847194,0.000748,97.5791,200.1801,271.138,88.9,0,999,9367,0.0021886,0.00053066,0,3852765,0 SPACEBEE-102,1 48886U 21059H   23065.32316733  .00053066  00000-0  21886-2 0  9992,2 48886  97.5791 200.1801 0007480 271.1380  88.9000 15.23847194 93671,2021-059H,48886,6872.386,94.498,499.392,489.111,0,
GENERATED VIA SPACETRACK.ORG API,18 SPCS,48886,SPACEBEE-102,PAYLOAD,U,21059H,2023/3/6 7:45,657312,15.23847194,0.000748,97.5791,200.1801,271.138,88.9,0,999,9367,0.0021886,0.00053066,0,3853141,0 SPACEBEE-102,1 48886U 21059H   23065.32316733  .00053066  00000-0  21886-2 0  9992,2 48886  97.5791 200.1801 0007480 271.1380  88.9000 15.23847194 93671,2021-059H,48886,6872.386,94.498,499.392,489.111,0,
GENERATED VIA SPACETRACK.ORG API,18 SPCS,48886,SPACEBEE-102,PAYLOAD,U,21059H,2023/3/7 8:58,479680,15.23949465,0.0007485,97.5798,201.2419,267.6083,92.4297,0,999,9383,0.0021119,0.00051348,0,3853696,0 SPACEBEE-102,1 48886U 21059H   23066.37377870  .00051348  00000-0  21119-2 0  9997,2 48886  97.5798 201.2419 0007485 267.6083  92.4297 15.23949465 93830,2021-059H,48886,6872.079,94.491,499.088,488.8,0,
GENERATED VIA SPACETRACK.ORG API,18 SPCS,48886,SPACEBEE-102,PAYLOAD,U,21059H,2023/3/7 8:58,479680,15.23949465,0.0007485,97.5798,201.2419,267.6083,92.4297,0,999,9383,0.0021119,0.00051348,0,3854072,0 SPACEBEE-102,1 48886U 21059H   23066.37377870  .00051348  00000-0  21119-2 0  9997,2 48886  97.5798 201.2419 0007485 267.6083  92.4297 15.23949465 93830,2021-059H,48886,6872.079,94.491,499.088,488.8,0,
GENERATED VIA SPACETRACK.ORG API,18 SPCS,48886,SPACEBEE-102,PAYLOAD,U,21059H,2023/3/8 8:36,428768,15.24040144,0.0007439,97.5801,202.2374,264.1781,95.8608,0,999,9398,0.0018351,0.00044688,0,3854590,0 SPACEBEE-102,1 48886U 21059H   23067.35866237  .00044688  00000-0  18351-2 0  9999,2 48886  97.5801 202.2374 0007439 264.1781  95.8608 15.24040144 93988,2021-059H,48886,6871.806,94.486,498.783,488.559,0,
GENERATED VIA SPACETRACK.ORG API,18 SPCS,48886,SPACEBEE-102,PAYLOAD,U,21059H,2023/3/8 19:38,104992,15.24095975,0.0007438,97.5802,202.702,262.5641,97.475,0,999,9405,0.0024103,0.00058928,0,3854989,0 SPACEBEE-102,1 48886U 21059H   23067.81825353  .00058928  00000-0  24103-2 0  9998,2 48886  97.5802 202.7020 0007438 262.5641  97.4750 15.24095975 94055,2021-059H,48886,6871.638,94.482,498.615,488.392,0,
GENERATED VIA SPACETRACK.ORG API,18 SPCS,48886,SPACEBEE-102,PAYLOAD,U,21059H,2023/3/8 19:38,104992,15.24095975,0.0007438,97.5802,202.702,262.5641,97.475,0,999,9405,0.0024103,0.00058928,0,3855077,0 SPACEBEE-102,1 48886U 21059H   23067.81825353  .00058928  00000-0  24103-2 0  9998,2 48886  97.5802 202.7020 0007438 262.5641  97.4750 15.24095975 94055,2021-059H,48886,6871.638,94.482,498.615,488.392,0,
GENERATED VIA SPACETRACK.ORG API,18 SPCS,48886,SPACEBEE-102,PAYLOAD,U,21059H,2023/3/9 8:14,99680,15.24140033,0.0007452,97.5801,203.233,261.043,98.9963,0,999,9413,0.0020882,0.00051057,0,3855766,0 SPACEBEE-102,1 48886U 21059H   23068.34348495  .00051057  00000-0  20882-2 0  9990,2 48886  97.5801 203.2330 0007452 261.0430  98.9963 15.24140033 94137,2021-059H,48886,6871.506,94.48,498.492,488.25,0,
GENERATED VIA SPACETRACK.ORG API,18 SPCS,48886,SPACEBEE-102,PAYLOAD,U,21059H,2023/3/9 20:50,378464,15.24196848,0.0007493,97.5801,203.764,259.3957,100.6436,0,999,9421,0.0021475,0.00052609,0,3855951,0 SPACEBEE-102,1 48886U 21059H   23068.86869651  .00052609  00000-0  21475-2 0  9992,2 48886  97.5801 203.7640 0007493 259.3957 100.6436 15.24196848 94215,2021-059H,48886,6871.335,94.476,498.349,488.052,0,
GENERATED VIA SPACETRACK.ORG API,18 SPCS,48886,SPACEBEE-102,PAYLOAD,U,21059H,2023/3/10 7:52,919584,15.24250547,0.0007555,97.5799,204.2284,258.2167,101.8222,0,999,9428,0.002299,0.00056445,0,3856524,0 SPACEBEE-102,1 48886U 21059H   23069.32823981  .00056445  00000-0  22990-2 0  9995,2 48886  97.5799 204.2284 0007555 258.2167 101.8222 15.24250547 94281,2021-059H,48886,6871.174,94.473,498.23,487.848,0,
GENERATED VIA SPACETRACK.ORG API,18 SPCS,48886,SPACEBEE-102,PAYLOAD,U,21059H,2023/3/10 20:28,109568,15.24298619,0.0007586,97.58,204.7594,257.0431,102.9959,0,999,9436,0.00195,0.00047879,0,3856975,0 SPACEBEE-102,1 48886U 21059H   23069.85341562  .00047879  00000-0  19500-2 0  9997,2 48886  97.5800 204.7594 0007586 257.0431 102.9959 15.24298619 94368,2021-059H,48886,6871.029,94.47,498.107,487.682,0,
GENERATED VIA SPACETRACK.ORG API,18 SPCS,48886,SPACEBEE-102,PAYLOAD,U,21059H,2023/3/10 22:03,883360,15.24305647,0.0007598,97.5802,204.826,256.8872,103.1517,0,999,9437,0.0019688,0.00048355,0,3857188,0 SPACEBEE-102,1 48886U 21059H   23069.91906115  .00048355  00000-0  19688-2 0  9992,2 48886  97.5802 204.8260 0007598 256.8872 103.1517 15.24305647 94374,2021-059H,48886,6871.008,94.469,498.094,487.653,0,
GENERATED VIA SPACETRACK.ORG API,18 SPCS,48886,SPACEBEE-102,PAYLOAD,U,21059H,2023/3/11 9:05,658816,15.24355485,0.0007569,97.5803,205.2907,255.0728,104.9671,0,999,9444,0.0017683,0.00043458,0,3857581,0 SPACEBEE-102,1 48886U 21059H   23070.37857244  .00043458  00000-0  17683-2 0  9994,2 48886  97.5803 205.2907 0007569 255.0728 104.9671 15.24355485 94440,2021-059H,48886,6870.858,94.466,497.924,487.523,0,
GENERATED VIA SPACETRACK.ORG API,18 SPCS,48886,SPACEBEE-102,PAYLOAD,U,21059H,2023/3/12 7:08,950720,15.24437141,0.0007537,97.5804,206.2208,252.8774,107.1637,0,999,9458,0.0019176,0.00047272,0,3858096,0 SPACEBEE-102,1 48886U 21059H   23071.29755730  .00047272  00000-0  19176-2 0  9990,2 48886  97.5804 206.2208 0007537 252.8774 107.1637 15.24437141 94589,2021-059H,48886,6870.613,94.461,497.656,487.3,0,
GENERATED VIA SPACETRACK.ORG API,18 SPCS,48886,SPACEBEE-102,PAYLOAD,U,21059H,2023/3/12 7:08,950720,15.24437141,0.0007537,97.5804,206.2208,252.8774,107.1637,0,999,9458,0.0019176,0.00047272,0,3858534,0 SPACEBEE-102,1 48886U 21059H   23071.29755730  .00047272  00000-0  19176-2 0  9990,2 48886  97.5804 206.2208 0007537 252.8774 107.1637 15.24437141 94589,2021-059H,48886,6870.613,94.461,497.656,487.3,0,
GENERATED VIA SPACETRACK.ORG API,18 SPCS,48886,SPACEBEE-102,PAYLOAD,U,21059H,2023/3/12 8:43,232896,15.24443228,0.0007534,97.5805,206.2872,252.5329,107.5085,0,999,9459,0.0019114,0.00047127,0,3858743,0 SPACEBEE-102,1 48886U 21059H   23071.36319714  .00047127  00000-0  19114-2 0  9997,2 48886  97.5805 206.2872 0007534 252.5329 107.5085 15.24443228 94592,2021-059H,48886,6870.595,94.461,497.636,487.284,0,
GENERATED VIA SPACETRACK.ORG API,18 SPCS,48886,SPACEBEE-102,PAYLOAD,U,21059H,2023/3/13 8:20,858848,15.24523428,0.0007555,97.5806,207.2834,248.8811,111.1619,0,999,9474,0.0015158,0.00037399,0,3859256,0 SPACEBEE-102,1 48886U 21059H   23072.34776457  .00037399  00000-0  15158-2 0  9991,2 48886  97.5806 207.2834 0007555 248.8811 111.1619 15.24523428 94741,2021-059H,48886,6870.354,94.456,497.409,487.028,0,
